{"type": "FeatureCollection", "features": [ {"type": "Feature", "properties": {"norad_id": 33701, "name": "FENGYUN 1C DEB", "group": "fengyun-1c-debris", "lat": -80.56175610400442, "lon": 52.47029737345138, "alt_km": 860.4925364594901, "timestamp": "2025-12-10T09:57:44.986168+00:00", "meta": {"OBJECT_NAME": "FENGYUN 1C DEB", "OBJECT_ID": "1999-025DGN", "EPOCH": "2025-11-19T19:29:54.481632", "MEAN_MOTION": 14.02181122, "ECCENTRICITY": 0.01331995, "INCLINATION": 98.6598, "RA_OF_ASC_NODE": 279.346, "ARG_OF_PERICENTER": 252.9525, "MEAN_ANOMALY": 105.7013, "EPHEMERIS_TYPE": 0, "CLASSIFICATION_TYPE": "U", "NORAD_CAT_ID": 33701, "ELEMENT_SET_NO": 999, "REV_AT_EPOCH": 90184, "BSTAR": 0.0018411078, "MEAN_MOTION_DOT": 3.003e-05, "MEAN_MOTION_DDOT": 0}, "tle": {"line1": "1 33701U 99025DGN 25323.81243613  .00003003  00000+0  18411-2 0  9994", "line2": "2 33701  98.6598 279.3460 0133199 252.9525 105.7013 14.02181122901849"}}, "geometry": {"type": "Point", "coordinates": [52.47029737345138, -80.56175610400442]}}, {"type": "Feature", "properties": {"norad_id": 33710, "name": "FENGYUN 1C DEB", "group": "fengyun-1c-debris", "lat": -45.83328687316443, "lon": -106.11086455893188, "alt_km": 848.243201880694, "timestamp": "2025-12-10T09:57:44.986178+00:00", "meta": {"OBJECT_NAME": "FENGYUN 1C DEB", "OBJECT_ID": "1999-025DGX", "EPOCH": "2025-12-09T17:35:13.202880", "MEAN_MOTION": 14.11623225, "ECCENTRICITY": 0.0056142, "INCLINATION": 98.9795, "RA_OF_ASC_NODE": 82.5751, "ARG_OF_PERICENTER": 155.675, "MEAN_ANOMALY": 204.709, "EPHEMERIS_TYPE": 0, "CLASSIFICATION_TYPE": "U", "NORAD_CAT_ID": 33710, "ELEMENT_SET_NO": 999, "REV_AT_EPOCH": 67614, "BSTAR": 0.0017498, "MEAN_MOTION_DOT": 3.184e-05, "MEAN_MOTION_DDOT": 0}, "tle": {"line1": "1 33710U 99025DGX 25343.73279170  .00003184  00000+0  17498-2 0  9998", "line2": "2 33710  98.9795  82.5751 0056142 155.6750 204.7090 14.11623225676141"}}, "geometry": {"type": "Point", "coordinates": [-106.11086455893188, -45.83328687316443]}}, {"type": "Feature", "properties": {"norad_id": 33711, "name": "FENGYUN 1C DEB", "group": "fengyun-1c-debris", "lat": 73.69674460032616, "lon": -108.54462326614049, "alt_km": 836.8531520577026, "timestamp": "2025-12-10T09:57:44.986188+00:00", "meta": {"OBJECT_NAME": "FENGYUN 1C DEB", "OBJECT_ID": "1999-025DGY", "EPOCH": "2025-12-10T02:45:35.091072", "MEAN_MOTION": 14.00911386, "ECCENTRICITY": 0.0096833, "INCLINATION": 99.1833, "RA_OF_ASC_NODE": 37.575, "ARG_OF_PERICENTER": 55.4567, "MEAN_ANOMALY": 334.4758, "EPHEMERIS_TYPE": 0, "CLASSIFICATION_TYPE": "U", "NORAD_CAT_ID": 33711, "ELEMENT_SET_NO": 999, "REV_AT_EPOCH": 91895, "BSTAR": 0.00076144, "MEAN_MOTION_DOT": 1.141e-05, "MEAN_MOTION_DDOT": 0}, "tle": {"line1": "1 33711U 99025DGY 25344.11498948  .00001141  00000+0  76144-3 0  9993", "line2": "2 33711  99.1833  37.5750 0096833  55.4567 334.4758 14.00911386918957"}}, "geometry": {"type": "Point", "coordinates": [-108.54462326614049, 73.69674460032616]}}, {"type": "Feature", "properties": {"norad_id": 33716, "name": "FENGYUN 1C DEB", "group": "fengyun-1c-debris", "lat": 41.176665793050944, "lon": 97.79503648241648, "alt_km": 825.3634352311783, "timestamp": "2025-12-10T09:57:44.986198+00:00", "meta": {"OBJECT_NAME": "FENGYUN 1C DEB", "OBJECT_ID": "1999-025DHD", "EPOCH": "2025-12-08T13:44:40.185312", "MEAN_MOTION": 14.32662648, "ECCENTRICITY": 0.009384, "INCLINATION": 98.8734, "RA_OF_ASC_NODE": 268.0553, "ARG_OF_PERICENTER": 10.1003, "MEAN_ANOMALY": 350.2038, "EPHEMERIS_TYPE": 0, "CLASSIFICATION_TYPE": "U", "NORAD_CAT_ID": 33716, "ELEMENT_SET_NO": 999, "REV_AT_EPOCH": 65098, "BSTAR": 0.00037158, "MEAN_MOTION_DOT": 1.014e-05, "MEAN_MOTION_DDOT": 0}, "tle": {"line1": "1 33716U 99025DHD 25342.57268733  .00001014  00000+0  37158-3 0  9994", "line2": "2 33716  98.8734 268.0553 0093840  10.1003 350.2038 14.32662648650980"}}, "geometry": {"type": "Point", "coordinates": [97.79503648241648, 41.176665793050944]}}, {"type": "Feature", "properties": {"norad_id": 33718, "name": "FENGYUN 1C DEB", "group": "fengyun-1c-debris", "lat": 73.84057882142618, "lon": 34.86140806522077, "alt_km": 883.3886661367542, "timestamp": "2025-12-10T09:57:44.986208+00:00", "meta": {"OBJECT_NAME": "FENGYUN 1C DEB", "OBJECT_ID": "1999-025DHF", "EPOCH": "2025-12-10T01:04:23.926368", "MEAN_MOTION": 14.08048405, "ECCENTRICITY": 0.0097786, "INCLINATION": 99.6587, "RA_OF_ASC_NODE": 70.4611, "ARG_OF_PERICENTER": 327.3055, "MEAN_ANOMALY": 32.2083, "EPHEMERIS_TYPE": 0, "CLASSIFICATION_TYPE": "U", "NORAD_CAT_ID": 33718, "ELEMENT_SET_NO": 999, "REV_AT_EPOCH": 69148, "BSTAR": 0.0019674, "MEAN_MOTION_DOT": 3.449e-05, "MEAN_MOTION_DDOT": 0}, "tle": {"line1": "1 33718U 99025DHF 25344.04472137  .00003449  00000+0  19674-2 0  9991", "line2": "2 33718  99.6587  70.4611 0097786 327.3055  32.2083 14.08048405691489"}}, "geometry": {"type": "Point", "coordinates": [34.86140806522077, 73.84057882142618]}}, {"type": "Feature", "properties": {"norad_id": 33719, "name": "FENGYUN 1C DEB", "group": "fengyun-1c-debris", "lat": -0.08410914717711139, "lon": -135.6216583579874, "alt_km": 817.8258268875543, "timestamp": "2025-12-10T09:57:44.986218+00:00", "meta": {"OBJECT_NAME": "FENGYUN 1C DEB", "OBJECT_ID": "1999-025DHG", "EPOCH": "2025-12-08T15:39:12.917376", "MEAN_MOTION": 14.23453689, "ECCENTRICITY": 0.00306606, "INCLINATION": 98.7736, "RA_OF_ASC_NODE": 42.634, "ARG_OF_PERICENTER": 91.6398, "MEAN_ANOMALY": 59.3133, "EPHEMERIS_TYPE": 0, "CLASSIFICATION_TYPE": "U", "NORAD_CAT_ID": 33719, "ELEMENT_SET_NO": 999, "REV_AT_EPOCH": 91955, "BSTAR": 0.0017609759, "MEAN_MOTION_DOT": 3.978e-05, "MEAN_MOTION_DDOT": 0}, "tle": {"line1": "1 33719U 99025DHG 25342.65223284  .00003978  00000+0  17610-2 0  9999", "line2": "2 33719  98.7736  42.6340 0030660  91.6398  59.3133 14.23453689919553"}}, "geometry": {"type": "Point", "coordinates": [-135.6216583579874, -0.08410914717711139]}}, {"type": "Feature", "properties": {"norad_id": 33722, "name": "FENGYUN 1C DEB", "group": "fengyun-1c-debris", "lat": 79.80979888969476, "lon": -124.0890857925436, "alt_km": 922.0616423023757, "timestamp": "2025-12-10T09:57:44.986228+00:00", "meta": {"OBJECT_NAME": "FENGYUN 1C DEB", "OBJECT_ID": "1999-025DHK", "EPOCH": "2025-12-08T18:38:43.321056", "MEAN_MOTION": 14.21339483, "ECCENTRICITY": 0.01581157, "INCLINATION": 98.5747, "RA_OF_ASC_NODE": 357.2445, "ARG_OF_PERICENTER": 263.1984, "MEAN_ANOMALY": 95.1181, "EPHEMERIS_TYPE": 0, "CLASSIFICATION_TYPE": "U", "NORAD_CAT_ID": 33722, "ELEMENT_SET_NO": 999, "REV_AT_EPOCH": 92091, "BSTAR": 0.001297189, "MEAN_MOTION_DOT": 3.169e-05, "MEAN_MOTION_DDOT": 0}, "tle": {"line1": "1 33722U 99025DHK 25342.77689029  .00003169  00000+0  12972-2 0  9997", "line2": "2 33722  98.5747 357.2445 0158115 263.1984  95.1181 14.21339483920917"}}, "geometry": {"type": "Point", "coordinates": [-124.0890857925436, 79.80979888969476]}}, {"type": "Feature", "properties": {"norad_id": 33723, "name": "FENGYUN 1C DEB", "group": "fengyun-1c-debris", "lat": -80.41552626412847, "lon": 172.19132330557025, "alt_km": 830.9138765103708, "timestamp": "2025-12-10T09:57:44.986239+00:00", "meta": {"OBJECT_NAME": "FENGYUN 1C DEB", "OBJECT_ID": "1999-025DHL", "EPOCH": "2025-12-06T11:33:11.056608", "MEAN_MOTION": 14.132294, "ECCENTRICITY": 0.00983, "INCLINATION": 99.1549, "RA_OF_ASC_NODE": 60.9133, "ARG_OF_PERICENTER": 348.5061, "MEAN_ANOMALY": 77.0859, "EPHEMERIS_TYPE": 0, "CLASSIFICATION_TYPE": "U", "NORAD_CAT_ID": 33723, "ELEMENT_SET_NO": 999, "REV_AT_EPOCH": 63535, "BSTAR": 0.0032867637, "MEAN_MOTION_DOT": 6.403e-05, "MEAN_MOTION_DDOT": 0}, "tle": {"line1": "1 33723U 99025DHL 25340.48137797  .00006403  00000+0  32868-2 0  9994", "line2": "2 33723  99.1549  60.9133 0098300 348.5061  77.0859 14.13229400635350"}}, "geometry": {"type": "Point", "coordinates": [172.19132330557025, -80.41552626412847]}}, {"type": "Feature", "properties": {"norad_id": 33724, "name": "FENGYUN 1C DEB", "group": "fengyun-1c-debris", "lat": -50.322890924251915, "lon": 5.305366780429109, "alt_km": 843.3893297594777, "timestamp": "2025-12-10T09:57:44.986249+00:00", "meta": {"OBJECT_NAME": "FENGYUN 1C DEB", "OBJECT_ID": "1999-025DHM", "EPOCH": "2025-12-09T07:13:31.965024", "MEAN_MOTION": 14.19636698, "ECCENTRICITY": 0.0027263, "INCLINATION": 98.6042, "RA_OF_ASC_NODE": 353.7064, "ARG_OF_PERICENTER": 191.615, "MEAN_ANOMALY": 186.7752, "EPHEMERIS_TYPE": 0, "CLASSIFICATION_TYPE": "U", "NORAD_CAT_ID": 33724, "ELEMENT_SET_NO": 999, "REV_AT_EPOCH": 93913, "BSTAR": 0.00073906, "MEAN_MOTION_DOT": 1.524e-05, "MEAN_MOTION_DDOT": 0}, "tle": {"line1": "1 33724U 99025DHM 25343.30106441  .00001524  00000+0  73906-3 0  9999", "line2": "2 33724  98.6042 353.7064 0027263 191.6150 186.7752 14.19636698939135"}}, "geometry": {"type": "Point", "coordinates": [5.305366780429109, -50.322890924251915]}}, {"type": "Feature", "properties": {"norad_id": 33726, "name": "FENGYUN 1C DEB", "group": "fengyun-1c-debris", "lat": -18.02996131915339, "lon": 111.5349385070988, "alt_km": 769.571520687191, "timestamp": "2025-12-10T09:57:44.986259+00:00", "meta": {"OBJECT_NAME": "FENGYUN 1C DEB", "OBJECT_ID": "1999-025DHP", "EPOCH": "2025-12-09T04:03:01.278720", "MEAN_MOTION": 14.14297509, "ECCENTRICITY": 0.01929908, "INCLINATION": 98.6388, "RA_OF_ASC_NODE": 107.4925, "ARG_OF_PERICENTER": 41.301, "MEAN_ANOMALY": 80.2474, "EPHEMERIS_TYPE": 0, "CLASSIFICATION_TYPE": "U", "NORAD_CAT_ID": 33726, "ELEMENT_SET_NO": 999, "REV_AT_EPOCH": 91881, "BSTAR": 0.00040884425, "MEAN_MOTION_DOT": 8.92e-06, "MEAN_MOTION_DDOT": 0}, "tle": {"line1": "1 33726U 99025DHP 25343.16876480  .00000892  00000+0  40884-3 0  9998", "line2": "2 33726  98.6388 107.4925 0192990  41.3010  80.2474 14.14297509918816"}}, "geometry": {"type": "Point", "coordinates": [111.5349385070988, -18.02996131915339]}}]}